SKYSAT-C1               
1 41601U 16040C   26196.54530963  .00005374  00000+0  15178-3 0  9995
2 41601  96.9548 226.7338 0000299 305.8175  54.3043 15.36752207562229
LAPAN-A3                
1 41603U 16040E   26196.58169146  .00001875  00000+0  60606-4 0  9991
2 41603  97.1505 191.7995 0008242 274.5259  85.5042 15.33279606559166
GAOFEN-3                
1 41727U 16049A   26196.59831089 -.00000002  00000+0  12595-4 0  9996
2 41727  98.4010 203.9556 0001771  84.2398 275.8993 14.42218780522745
SKYSAT-C4               
1 41771U 16058B   26196.49741296  .00011548  00000+0  21162-3 0  9999
2 41771  96.9158 217.0987 0003425 116.4408 243.7197 15.49444803549858
SKYSAT-C5               
1 41772U 16058C   26196.34177105  .00004080  00000+0  12741-3 0  9992
2 41772  97.0454 235.7193 0002566 160.1031 200.0313 15.33720350548064
SKYSAT-C2               
1 41773U 16058D   26196.02683222  .00007118  00000+0  16515-3 0  9998
2 41773  97.0156 217.0836 0001519 354.7019   5.4213 15.42678066549349
SKYSAT-C3               
1 41774U 16058E   26196.04101935  .00014739  00000+0  23177-3 0  9996
2 41774  96.8991 225.8356 0002515 132.0460 228.1009 15.53702651550431
ALSAT-1B                
1 41785U 16059C   26196.58071610  .00000027  00000+0  11782-4 0  9999
2 41785  97.7749 204.1193 0010333 128.5905 231.6230 14.72293895524750
PATHFINDER 1            
1 41787U 16059E   26196.49780415  .00000292  00000+0  59031-4 0  9994
2 41787  97.8177 194.4977 0029824 114.7855 245.6459 14.67693496523869
SCATSAT 1               
1 41790U 16059H   26196.14408262  .00000664  00000+0  93820-4 0  9994
2 41790  98.1178 260.1971 0055207 156.7170 203.6560 14.79587238105720
GOKTURK 1A              
1 41875U 16073A   26196.63320317  .00000218  00000+0  51781-4 0  9997
2 41875  98.1220  90.8575 0001392  81.1654 278.9705 14.62793471512980
RESOURCESAT-2A          
1 41877U 16074A   26196.57567394  .00000077  00000+0  55243-4 0  9991
2 41877  98.7526 269.8466 0002404  28.0479 332.0828 14.21608856498331
CARTOSAT-2D             
1 41948U 17008A   26196.61157203  .00002673  00000+0  12986-3 0  9997
2 41948  97.4097 255.3837 0006048 136.8224 223.3486 15.19288711521897
SENTINEL-2B             
1 42063U 17013A   26196.59911653  .00000439  00000+0  18418-3 0  9990
2 42063  98.5691 270.9714 0001212  89.9035 270.2287 14.30816579488704
CARTOSAT-2E             
1 42767U 17036C   26196.56348418  .00003253  00000+0  15754-3 0  9993
2 42767  97.4264 255.8957 0003245 187.9693 172.1491 15.19259191502452
FORMOSAT-5              
1 42920U 17049A   26196.60360124  .00000047  00000+0  23077-4 0  9997
2 42920  98.2246 271.2810 0011311   2.5972 357.5280 14.50907919470795
SENTINEL-5P             
1 42969U 17064A   26196.46672141  .00000002  00000+0  22082-4 0  9992
2 42969  98.7929 138.3979 0001132  93.2297 266.9009 14.19523303453572
SKYSAT-C11              
1 42987U 17068A   26196.37010573  .00017307  00000+0  22104-3 0  9991
2 42987  97.4378 346.4626 0001149 158.8769 201.2535 15.59329614487631
SKYSAT-C10              
1 42988U 17068B   26196.39087526  .00005898  00000+0  17548-3 0  9994
2 42988  97.4540 333.5268 0001452 109.5270 250.6130 15.35118664486687
SKYSAT-C9               
1 42989U 17068C   26196.66380641  .00008086  00000+0  19016-3 0  9993
2 42989  97.4459 335.0137 0008613  43.4004 316.7920 15.42221766487145
SKYSAT-C8               
1 42990U 17068D   26196.38394945  .00005784  00000+0  15960-3 0  9992
2 42990  97.4556 333.4282 0001228 103.8748 256.2633 15.37493298486647
SKYSAT-C7               
1 42991U 17068E   26196.37843911  .00005633  00000+0  15567-3 0  9990
2 42991  97.4568 334.4142 0005731  20.6321 339.5153 15.37443553486701
SKYSAT-C6               
1 42992U 17068F   26196.38869335  .00004997  00000+0  15351-3 0  9993
2 42992  97.4605 334.2774 0005110  88.9992 271.1836 15.34171439486645
CARTOSAT-2F             
1 43111U 18004A   26196.59604218  .00002177  00000+0  10678-3 0  9993
2 43111  97.4777 255.9511 0002405 131.1026 229.0417 15.19175667471641
GAOFEN-1 02             
1 43259U 18031A   26196.62673428  .00000812  00000+0  12403-3 0  9991
2 43259  98.0518 259.0721 0001486 284.8636  75.2409 14.76474288446897
GAOFEN-1 03             
1 43260U 18031B   26196.60483644  .00000336  00000+0  55631-4 0  9992
2 43260  98.0503 258.9055 0002378  14.5714 345.5564 14.76462873446888
GAOFEN-1 04             
1 43262U 18031D   26196.58053688  .00000146  00000+0  28336-4 0  9993
2 43262  98.0519 259.0757 0001279  54.8578 305.2751 14.76470881446870
SENTINEL-3B             
1 43437U 18039A   26196.17151757  .00000038  00000+0  33813-4 0  9992
2 43437  98.6236 263.3004 0001135 119.7364 240.3929 14.26736282428112
GAOFEN-5 01             
1 43461U 18043A   26196.49116752  .00000123  00000+0  35464-4 0  9994
2 43461  98.4590 168.6751 0002069  31.7425 328.3900 14.60623395435824
GAOFEN-6                
1 43484U 18048A   26196.60311197  .00000658  00000+0  10212-3 0  9993
2 43484  98.0962 259.3059 0012135  80.4121 279.8459 14.76384832437587
