OBJECT_NAME,OBJECT_ID,EPOCH,MEAN_MOTION,ECCENTRICITY,INCLINATION,RA_OF_ASC_NODE,ARG_OF_PERICENTER,MEAN_ANOMALY,EPHEMERIS_TYPE,CLASSIFICATION_TYPE,NORAD_CAT_ID,ELEMENT_SET_NO,REV_AT_EPOCH,BSTAR,MEAN_MOTION_DOT,MEAN_MOTION_DDOT
SKYSAT-C1,2016-040C,2026-07-15T13:05:14.752032,15.36752207,.0000299,96.9548,226.7338,305.8175,54.3043,0,U,41601,999,56222,.15177567E-3,.5374E-4,0
LAPAN-A3,2016-040E,2026-07-15T13:57:38.142144,15.33279606,.00082429,97.1505,191.7995,274.5259,85.5042,0,U,41603,999,55916,.60605705E-4,.1875E-4,0
GAOFEN-3,2016-049A,2026-07-15T14:21:34.060896,14.42218780,.00017713,98.4010,203.9556,84.2398,275.8993,0,U,41727,999,52274,.1259495E-4,-.2E-7,0
SKYSAT-C4,2016-058B,2026-07-15T11:56:16.479744,15.49444803,.0003425,96.9158,217.0987,116.4408,243.7197,0,U,41771,999,54985,.21162188E-3,.11548E-3,0
SKYSAT-C5,2016-058C,2026-07-15T08:12:09.018720,15.33720350,.00025669,97.0454,235.7193,160.1031,200.0313,0,U,41772,999,54806,.12741023E-3,.408E-4,0
SKYSAT-C2,2016-058D,2026-07-15T00:38:38.303808,15.42678066,.00015194,97.0156,217.0836,354.7019,5.4213,0,U,41773,999,54934,.16514772E-3,.7118E-4,0
SKYSAT-C3,2016-058E,2026-07-15T00:59:04.071840,15.53702651,.00025158,96.8991,225.8356,132.0460,228.1009,0,U,41774,999,55043,.23176588E-3,.14739E-3,0
ALSAT-1B,2016-059C,2026-07-15T13:56:13.871040,14.72293895,.00103338,97.7749,204.1193,128.5905,231.6230,0,U,41785,999,52475,.11781907E-4,.27E-6,0
PATHFINDER 1,2016-059E,2026-07-15T11:56:50.278560,14.67693496,.0029824,97.8177,194.4977,114.7855,245.6459,0,U,41787,999,52386,.59030515E-4,.292E-5,0
SCATSAT 1,2016-059H,2026-07-15T03:27:28.738368,14.79587238,.00552077,98.1178,260.1971,156.7170,203.6560,0,U,41790,999,10572,.93819849E-4,.664E-5,0
GOKTURK 1A,2016-073A,2026-07-15T15:11:48.753888,14.62793471,.0001392,98.1220,90.8575,81.1654,278.9705,0,U,41875,999,51298,.51780721E-4,.218E-5,0
RESOURCESAT-2A,2016-074A,2026-07-15T13:48:58.228416,14.21608856,.00024045,98.7526,269.8466,28.0479,332.0828,0,U,41877,999,49833,.55243161E-4,.77E-6,0
CARTOSAT-2D,2017-008A,2026-07-15T14:40:39.823392,15.19288711,.00060481,97.4097,255.3837,136.8224,223.3486,0,U,41948,999,52189,.12986461E-3,.2673E-4,0
SENTINEL-2B,2017-013A,2026-07-15T14:22:43.668192,14.30816579,.0001212,98.5691,270.9714,89.9035,270.2287,0,U,42063,999,48870,.18418223E-3,.439E-5,0
CARTOSAT-2E,2017-036C,2026-07-15T13:31:25.033152,15.19259191,.00032459,97.4264,255.8957,187.9693,172.1491,0,U,42767,999,50245,.15753947E-3,.3253E-4,0
FORMOSAT-5,2017-049A,2026-07-15T14:29:11.147136,14.50907919,.00113117,98.2246,271.2810,2.5972,357.5280,0,U,42920,999,47079,.23077207E-4,.47E-6,0
SENTINEL-5P,2017-064A,2026-07-15T11:12:04.729824,14.19523303,.00011324,98.7929,138.3979,93.2297,266.9009,0,U,42969,999,45357,.22081851E-4,.2E-7,0
SKYSAT-C11,2017-068A,2026-07-15T08:52:57.135072,15.59329614,.00011496,97.4378,346.4626,158.8769,201.2535,0,U,42987,999,48763,.22104418E-3,.17307E-3,0
SKYSAT-C10,2017-068B,2026-07-15T09:22:51.622464,15.35118664,.00014527,97.4540,333.5268,109.5270,250.6130,0,U,42988,999,48668,.1754806E-3,.5898E-4,0
SKYSAT-C9,2017-068C,2026-07-15T15:55:52.873824,15.42221766,.00086131,97.4459,335.0137,43.4004,316.7920,0,U,42989,999,48714,.19015955E-3,.8086E-4,0
SKYSAT-C8,2017-068D,2026-07-15T09:12:53.232480,15.37493298,.0001228,97.4556,333.4282,103.8748,256.2633,0,U,42990,999,48664,.15959675E-3,.5784E-4,0
SKYSAT-C7,2017-068E,2026-07-15T09:04:57.139104,15.37443553,.00057317,97.4568,334.4142,20.6321,339.5153,0,U,42991,999,48670,.15566857E-3,.5633E-4,0
SKYSAT-C6,2017-068F,2026-07-15T09:19:43.105440,15.34171439,.00051104,97.4605,334.2774,88.9992,271.1836,0,U,42992,999,48664,.15351165E-3,.4997E-4,0
CARTOSAT-2F,2018-004A,2026-07-15T14:18:18.044352,15.19175667,.0002405,97.4777,255.9511,131.1026,229.0417,0,U,43111,999,47164,.10678E-3,.2177E-4,0
GAOFEN-1 02,2018-031A,2026-07-15T15:02:29.841792,14.76474288,.00014867,98.0518,259.0721,284.8636,75.2409,0,U,43259,999,44689,.12402548E-3,.812E-5,0
GAOFEN-1 03,2018-031B,2026-07-15T14:30:57.868416,14.76462873,.00023786,98.0503,258.9055,14.5714,345.5564,0,U,43260,999,44688,.55631392E-4,.336E-5,0
GAOFEN-1 04,2018-031D,2026-07-15T13:55:58.386432,14.76470881,.00012798,98.0519,259.0757,54.8578,305.2751,0,U,43262,999,44687,.28336428E-4,.146E-5,0
SENTINEL-3B,2018-039A,2026-07-15T04:06:59.118048,14.26736282,.00011352,98.6236,263.3004,119.7364,240.3929,0,U,43437,999,42811,.33812616E-4,.38E-6,0
GAOFEN-5 01,2018-043A,2026-07-15T11:47:16.873728,14.60623395,.00020699,98.4590,168.6751,31.7425,328.3900,0,U,43461,999,43582,.35463532E-4,.123E-5,0
GAOFEN-6,2018-048A,2026-07-15T14:28:28.874208,14.76384832,.00121355,98.0962,259.3059,80.4121,279.8459,0,U,43484,999,43758,.10211812E-3,.658E-5,0
